SL-3 R/B                
1 13403U 82079B   26078.31300245  .00004956  00000+0  19620-3 0  9992
2 13403  81.1491 181.7153 0025380 132.8575 227.4796 15.24931945379168
SL-14 R/B               
1 13553U 82092B   26078.26964179  .00000392  00000+0  41295-4 0  9993
2 13553  82.5675 132.4387 0018737 269.3047 158.9700 14.86675043330355
SL-3 R/B                
1 13819U 83010B   26078.20735731  .00011351  00000+0  22547-3 0  9998
2 13819  81.1066 350.5776 0017074  19.6753 340.5146 15.46676912359411
SL-3 R/B                
1 14208U 83075B   26078.24783002  .00007735  00000+0  20354-3 0  9995
2 14208  97.6136  83.1882 0021133 190.2307 169.8511 15.38633825331621
COSMOS 1536             
1 14699U 84013A   26078.30679134  .00004635  00000+0  18999-3 0  9997
2 14699  82.5410  98.2869 0012620 245.0757 114.9170 15.23947072274088
SL-14 R/B               
1 14820U 84027B   26077.91833656  .00000466  00000+0  50487-4 0  9992
2 14820  82.5397 236.3556 0016725 305.8119  54.1543 14.85986060249003
SL-8 R/B                
1 15483U 85006B   26078.21190193  .00000306  00000+0  11011-3 0  9994
2 15483  74.0436 243.6247 0018052 158.8492  13.8164 14.37790192155397
SL-12 R/B(2)            
1 15772U 85042D   26078.33956170  .00000007  00000+0  24517-4 0  9997
2 15772  71.1068  67.3392 0032967 112.1980 350.0116 14.21985069115767
SL-14 R/B               
1 15945U 85069B   26078.30421791  .00000477  00000+0  51067-4 0  9992
2 15945  82.5299  15.8941 0019342 156.0973 204.1146 14.86443787174269
SL-16 R/B               
1 16182U 85097B   26078.31025527  .00000267  00000+0  15786-3 0  9999
2 16182  71.0013 120.3003 0009622 248.0114 187.2002 14.16599881 88592
SL-14 R/B               
1 16496U 86006B   26078.21150350  .00000704  00000+0  72285-4 0  9994
2 16496  82.5238 250.7728 0075229 240.6285 118.7405 14.86828666150624
COSMOS 1743             
1 16719U 86034A   26078.20628294  .00031027  00000+0  39385-3 0  9994
2 16719  82.5283  63.8345 0002391 208.9636 151.1488 15.59260213181734
